NORAD_CAT_ID,OBJECT_NAME,OBJECT_TYPE,EPOCH,MEAN_MOTION,ECCENTRICITY,INCLINATION,RA_OF_ASC_NODE,ARG_OF_PERICENTER,MEAN_ANOMALY,BSTAR,MEAN_MOTION_DOT,MEAN_MOTION_DDOT,TLE_LINE0,TLE_LINE1,TLE_LINE2,SEMIMAJOR_AXIS,PERIOD,APOGEE,PERIGEE,DECAYED
56800.0,STARLINK-6036,PAYLOAD,2024-08-13 18:52:57,14.98297625,0.0002427,70.0016,348.9998,267.3632,92.7249,-0.00034778,-4.236e-05,0.0,0 STARLINK-6036,1 56800U 23078AK  24226.78677430 -.00004236  00000-0 -34778-3 0  9996,2 56800  70.0016 348.9998 0002427 267.3632  92.7249 14.98297625 66861,6950.293,96.109,573.845,570.471,0.0
56800.0,STARLINK-6036,PAYLOAD,2024-08-14 01:17:27,14.98315827,0.0005129,70.0053,348.3283,262.8773,97.1803,-0.00021369,-2.642e-05,0.0,0 STARLINK-6036,1 56800U 23078AK  24227.05378555 -.00002642  00000-0 -21369-3 0  9994,2 56800  70.0053 348.3283 0005129 262.8773  97.1803 14.98315827 67165,6950.237,96.108,575.666,568.537,0.0
56800.0,STARLINK-6036,PAYLOAD,2024-08-14 12:30:23,14.98335137,0.000356,70.0026,347.1461,279.5145,80.5612,3.5174e-05,3.27e-06,0.0,0 STARLINK-6036,1 56800U 23078AK  24227.52110602  .00000327  00000-0  35174-4 0  9999,2 56800  70.0026 347.1461 0003560 279.5145  80.5612 14.98335137 67233,6950.177,96.107,574.516,569.568,0.0
56800.0,STARLINK-6036,PAYLOAD,2024-08-14 14:06:31,14.98336649,0.0002665,70.0019,346.9812,266.2739,93.8116,0.00017523,1.999e-05,0.0,0 STARLINK-6036,1 56800U 23078AK  24227.58786233  .00001999  00000-0  17523-3 0  9997,2 56800  70.0019 346.9812 0002665 266.2739  93.8116 14.98336649 66985,6950.172,96.107,573.89,570.185,0.0
56800.0,STARLINK-6036,PAYLOAD,2024-08-14 17:18:47,14.98345147,0.0003518,70.0023,346.6428,273.2801,86.7956,0.00032712,3.814e-05,0.0,0 STARLINK-6036,1 56800U 23078AK  24227.72137992  .00003814  00000-0  32712-3 0  9990,2 56800  70.0023 346.6428 0003518 273.2801  86.7956 14.98345147 67264,6950.146,96.106,574.456,569.566,0.0
56800.0,STARLINK-6036,PAYLOAD,2024-08-15 14:08:33,14.98332277,0.0002701,70.0033,344.4565,269.565,90.52,0.00072003,8.509e-05,0.0,0 STARLINK-6036,1 56800U 23078AK  24228.58927085  .00008509  00000-0  72003-3 0  9998,2 56800  70.0033 344.4565 0002701 269.5650  90.5200 14.98332277 67137,6950.186,96.107,573.928,570.174,0.0
56800.0,STARLINK-6036,PAYLOAD,2024-08-16 09:22:09,14.98327998,0.0002827,70.0013,342.4353,267.9155,92.168,0.00032141,3.744e-05,0.0,0 STARLINK-6036,1 56800U 23078AK  24229.39038884  .00003744  00000-0  32141-3 0  9993,2 56800  70.0013 342.4353 0002827 267.9155  92.1680 14.98327998 67515,6950.199,96.107,574.029,570.099,0.0
56800.0,STARLINK-6036,PAYLOAD,2024-08-17 07:48:01,14.98336043,0.0002798,70.0005,340.0769,266.1168,93.9671,7.9755e-06,2e-08,0.0,0 STARLINK-6036,1 56800U 23078AK  24230.32502194  .00000002  00000-0  79755-5 0  9996,2 56800  70.0005 340.0769 0002798 266.1168  93.9671 14.98336043 67399,6950.174,96.107,573.984,570.095,0.0
56800.0,STARLINK-6036,PAYLOAD,2024-08-18 06:13:54,14.98335649,0.0003037,69.9985,337.7203,265.2287,94.8525,0.00011657,1.298e-05,0.0,0 STARLINK-6036,1 56800U 23078AK  24231.25965495  .00001298  00000-0  11657-3 0  9999,2 56800  69.9985 337.7203 0003037 265.2287  94.8525 14.98335649 67533,6950.175,96.107,574.151,569.93,0.0
56800.0,STARLINK-6036,PAYLOAD,2024-08-18 12:38:26,14.98337498,0.0002635,70.003,337.0514,256.4267,103.6599,0.00010487,1.159e-05,0.0,0 STARLINK-6036,1 56800U 23078AK  24231.52669330  .00001159  00000-0  10487-3 0  9994,2 56800  70.0030 337.0514 0002635 256.4267 103.6599 14.98337498 67835,6950.17,96.107,573.866,570.203,0.0
56800.0,STARLINK-6036,PAYLOAD,2024-08-18 15:50:40,14.98353662,0.000294,70.0001,336.7122,249.5546,110.5298,0.00031237,3.638e-05,0.0,0 STARLINK-6036,1 56800U 23078AK  24231.66019572  .00003638  00000-0  31237-3 0  9996,2 56800  70.0001 336.7122 0002940 249.5546 110.5298 14.98353662 67852,6950.12,96.105,574.028,569.941,0.0
56800.0,STARLINK-6036,PAYLOAD,2024-08-19 09:28:11,14.98328798,0.0002948,69.9995,334.8609,262.4977,97.5847,2.1339e-05,1.62e-06,0.0,0 STARLINK-6036,1 56800U 23078AK  24232.39457776  .00000162  00000-0  21339-4 0  9991,2 56800  69.9995 334.8609 0002948 262.4977  97.5847 14.98328798 67968,6950.197,96.107,574.111,570.013,0.0
56800.0,STARLINK-6036,PAYLOAD,2024-08-20 11:06:20,14.98335749,0.0002836,70.0007,332.1697,262.6675,97.4161,2.5556e-05,2.12e-06,0.0,0 STARLINK-6036,1 56800U 23078AK  24233.46273330  .00000212  00000-0  25556-4 0  9993,2 56800  70.0007 332.1697 0002836 262.6675  97.4161 14.98335749 68127,6950.175,96.107,574.011,570.069,0.0
56800.0,STARLINK-6036,PAYLOAD,2024-08-20 14:18:35,14.98341842,0.0003097,70.0003,331.8316,266.6962,93.3843,8.0272e-05,8.65e-06,0.0,0 STARLINK-6036,1 56800U 23078AK  24233.59624774  .00000865  00000-0  80272-4 0  9999,2 56800  70.0003 331.8316 0003097 266.6962  93.3843 14.98341842 67885,6950.156,96.106,574.174,569.869,0.0
56800.0,STARLINK-6036,PAYLOAD,2024-08-20 15:54:43,14.98344142,0.0002939,70.0005,331.6633,263.5495,96.5329,9.3382e-05,1.022e-05,0.0,0 STARLINK-6036,1 56800U 23078AK  24233.66300569  .00001022  00000-0  93382-4 0  9992,2 56800  70.0005 331.6633 0002939 263.5495  96.5329 14.98344142 68159,6950.149,96.106,574.057,569.972,0.0
56800.0,STARLINK-6036,PAYLOAD,2024-08-21 12:44:30,14.98320801,0.0002527,70.0013,329.4767,261.875,98.2123,8.0025e-05,8.62e-06,0.0,0 STARLINK-6036,1 56800U 23078AK  24234.53090291  .00000862  00000-0  80025-4 0  9998,2 56800  70.0013 329.4767 0002527 261.8750  98.2123 14.98320801 68280,6950.221,96.108,573.843,570.33,0.0
56800.0,STARLINK-6036,PAYLOAD,2024-08-21 14:20:38,14.98320059,0.0002549,70.0012,329.3083,262.3418,97.7452,6.6445e-05,7e-06,0.0,0 STARLINK-6036,1 56800U 23078AK  24234.59766404  .00000700  00000-0  66445-4 0  9991,2 56800  70.0012 329.3083 0002549 262.3418  97.7452 14.98320059 68037,6950.224,96.108,573.86,570.317,0.0
56800.0,STARLINK-6036,PAYLOAD,2024-08-21 15:56:46,14.98320784,0.0002551,70.0013,329.1401,262.6833,97.4036,7.0235e-05,7.45e-06,0.0,0 STARLINK-6036,1 56800U 23078AK  24234.66442384  .00000745  00000-0  70235-4 0  9998,2 56800  70.0013 329.1401 0002551 262.6833  97.4036 14.98320784 68048,6950.221,96.108,573.859,570.313,0.0
